STARLINK-37491          
1 69166U 26111U   26158.75005786 -.00006944  00000+0 -36178-4 0  9992
2 69166  53.1592 198.8918 0000811  89.1910  88.5068 15.78056910  4031
STARLINK-37474          
1 69167U 26111V   26158.75005786 -.00022756  00000+0 -12746-3 0  9996
2 69167  53.1595 198.8619 0001069  85.6989 106.5072 15.78071643  4032
STARLINK-37469          
1 69168U 26111W   26158.75005786 -.02609631  00000+0 -25457-1 0  9993
2 69168  53.1595 198.8839 0001381  65.7575 115.2536 15.69082184  4038
STARLINK-37515          
1 69169U 26111X   26158.75005786 -.00013184  00000+0 -72181-4 0  9993
2 69169  53.1596 198.8425 0001198  87.7839 113.7518 15.78059720  4037
STARLINK-37437          
1 69170U 26111Y   26157.69752450  .00149746  00000+0  74851-3 0  9991
2 69170  53.1586 204.0510 0000732  63.0627 297.0470 15.80891266  2604
STARLINK-37392          
1 69171U 26111Z   26158.75005786 -.00010309  00000+0 -55577-4 0  9992
2 69171  53.1591 198.7620 0001035  46.4728 193.7028 15.78061924  4033
STARLINK-37472          
1 69172U 26111AA  26158.75005786  .00056343  00000+0  32679-3 0  9996
2 69172  53.1592 198.7301 0001015  73.3641 182.0352 15.78014717  4031
STARLINK-37461          
1 69173U 26111AB  26158.75005786 -.02594334  00000+0 -23472-1 0  9997
2 69173  53.1598 198.8402 0001256  75.3085 126.4828 15.70849085  4038
STARLINK-37333          
1 69174U 26111AC  26158.75005786 -.00033308  00000+0 -18861-3 0  9993
2 69174  53.1589 198.8231 0001077  85.1852 125.5256 15.78068555  4039
STARLINK-37385          
1 69175U 26111AD  26158.75005786 -.02614061  00000+0 -21756-1 0  9992
2 69175  53.1597 198.8112 0001249  77.3326 138.8434 15.72825206  4030
STARLINK-37414          
1 69176U 26111AE  26158.75005786 -.00006644  00000+0 -34446-4 0  9996
2 69176  53.1591 198.7714 0001172  78.8247 156.7198 15.78055278  4031
STRIX-7                 
1 69177U 26112A   26158.72433929  .00004375  00000+0  34980-3 0  9998
2 69177  44.9065 242.1490 0024132 353.7302   6.3264 15.01387684  2452
SHENZHOU-23 (SZ-23)     
1 69180U 26113A   26157.67381585  .00028669  00000+0  34211-3 0  9995
2 69180  41.4692  25.9625 0009150 355.7318   4.3441 15.60361832291258
STARLINK-37380          
1 69182U 26114A   26158.75005786  .00024393  00000+0  14399-3 0  9999
2 69182  53.1586 249.6091 0001185 103.3643  69.7633 15.78045000  3290
STARLINK-37089          
1 69183U 26114B   26158.75005786  .00050926  00000+0  29568-3 0  9995
2 69183  53.1586 249.5982 0001238  69.0770 109.3574 15.78032908  3295
STARLINK-37428          
1 69184U 26114C   26158.75005786  .00043357  00000+0  25259-3 0  9999
2 69184  53.1586 249.5821 0001184  68.2312 118.2069 15.78027742  3299
STARLINK-37237          
1 69185U 26114D   26158.75005786  .00030064  00000+0  17652-3 0  9999
2 69185  53.1588 249.5491 0001133  89.6082 112.4743 15.78037093  3295
STARLINK-37365          
1 69186U 26114E   26158.75005786  .00045589  00000+0  26520-3 0  9992
2 69186  53.1585 249.5529 0001186  76.1244 124.1716 15.78037865  3291
STARLINK-37209          
1 69187U 26114F   26158.75005786  .00146716  00000+0  83650-3 0  9994
2 69187  53.1587 249.5438 0001148  64.5969 140.0950 15.77998305  3297
STARLINK-37359          
1 69188U 26114G   26158.75005786  .00012644  00000+0  76556-4 0  9995
2 69188  53.1587 249.5386 0001129  77.8797 129.3119 15.78055961  3295
STARLINK-37440          
1 69189U 26114H   26158.75005786  .00111415  00000+0  56222-3 0  9999
2 69189  53.1584 249.1304 0000815  73.0483 331.4309 15.80816639  3297
STARLINK-37282          
1 69190U 26114J   26158.75005786 -.01833352  00000+0 -10355-1 0  9990
2 69190  53.1586 249.4721 0000925  91.9761 147.3152 15.81343500  3290
STARLINK-37422          
1 69191U 26114K   26158.75005786  .00037847  00000+0  19451-3 0  9991
2 69191  53.1585 249.4523 0000994 106.0743 143.0925 15.80865724  3291
STARLINK-37424          
1 69192U 26114L   26158.75005786 -.01117136  00000+0 -69102-2 0  9992
2 69192  53.1587 249.4656 0001355  63.5352 179.2364 15.78902088  3296
STARLINK-36666          
1 69193U 26114M   26158.75005786  .00046212  00000+0  23649-3 0  9993
2 69193  53.1583 249.4551 0001213  85.9501 161.9535 15.80866586  3297
STARLINK-37355          
1 69194U 26114N   26158.75005786 -.00015561  00000+0 -75409-4 0  9991
2 69194  53.1585 249.4465 0001138  79.2162 172.9596 15.80880503  3293
STARLINK-37166          
1 69195U 26114P   26158.75005786  .00142053  00000+0  71313-3 0  9996
2 69195  53.1587 249.4282 0001259  77.2035 183.5328 15.80822149  3297
