OBJECT_NAME,OBJECT_ID,EPOCH,MEAN_MOTION,ECCENTRICITY,INCLINATION,RA_OF_ASC_NODE,ARG_OF_PERICENTER,MEAN_ANOMALY,EPHEMERIS_TYPE,CLASSIFICATION_TYPE,NORAD_CAT_ID,ELEMENT_SET_NO,REV_AT_EPOCH,BSTAR,MEAN_MOTION_DOT,MEAN_MOTION_DDOT
STARLINK-37491,2026-111U,2026-06-07T18:00:04.999104,15.78056910,.0000811,53.1592,198.8918,89.1910,88.5068,0,U,69166,999,403,-.36178E-4,-.6944E-4,0
STARLINK-37474,2026-111V,2026-06-07T18:00:04.999104,15.78071643,.0001069,53.1595,198.8619,85.6989,106.5072,0,U,69167,999,403,-.12746E-3,-.22756E-3,0
STARLINK-37469,2026-111W,2026-06-07T18:00:04.999104,15.69082184,.0001381,53.1595,198.8839,65.7575,115.2536,0,U,69168,999,403,-.25457E-1,-.2609631E-1,0
STARLINK-37515,2026-111X,2026-06-07T18:00:04.999104,15.78059720,.0001198,53.1596,198.8425,87.7839,113.7518,0,U,69169,999,403,-.72181E-4,-.13184E-3,0
STARLINK-37437,2026-111Y,2026-06-06T16:44:26.116800,15.80891266,.00007328,53.1586,204.0510,63.0627,297.0470,0,U,69170,999,260,.74850576E-3,.149746E-2,0
STARLINK-37392,2026-111Z,2026-06-07T18:00:04.999104,15.78061924,.0001035,53.1591,198.7620,46.4728,193.7028,0,U,69171,999,403,-.55577E-4,-.10309E-3,0
STARLINK-37472,2026-111AA,2026-06-07T18:00:04.999104,15.78014717,.0001015,53.1592,198.7301,73.3641,182.0352,0,U,69172,999,403,.32679E-3,.56343E-3,0
STARLINK-37461,2026-111AB,2026-06-07T18:00:04.999104,15.70849085,.0001256,53.1598,198.8402,75.3085,126.4828,0,U,69173,999,403,-.23472E-1,-.2594334E-1,0
STARLINK-37333,2026-111AC,2026-06-07T18:00:04.999104,15.78068555,.0001077,53.1589,198.8231,85.1852,125.5256,0,U,69174,999,403,-.18861E-3,-.33308E-3,0
STARLINK-37385,2026-111AD,2026-06-07T18:00:04.999104,15.72825206,.0001249,53.1597,198.8112,77.3326,138.8434,0,U,69175,999,403,-.21756E-1,-.2614061E-1,0
STARLINK-37414,2026-111AE,2026-06-07T18:00:04.999104,15.78055278,.0001172,53.1591,198.7714,78.8247,156.7198,0,U,69176,999,403,-.34446E-4,-.6644E-4,0
STRIX-7,2026-112A,2026-06-07T17:23:02.914656,15.01387684,.0024132,44.9065,242.1490,353.7302,6.3264,0,U,69177,999,245,.3498E-3,.4375E-4,0
SHENZHOU-23 (SZ-23),2026-113A,2026-06-06T16:10:17.689440,15.60361832,.00091504,41.4692,25.9625,355.7318,4.3441,0,U,69180,999,29125,.3421058E-3,.28669E-3,0
STARLINK-37380,2026-114A,2026-06-07T18:00:04.999104,15.78045000,.0001185,53.1586,249.6091,103.3643,69.7633,0,U,69182,999,329,.14399E-3,.24393E-3,0
STARLINK-37089,2026-114B,2026-06-07T18:00:04.999104,15.78032908,.0001238,53.1586,249.5982,69.0770,109.3574,0,U,69183,999,329,.29568E-3,.50926E-3,0
STARLINK-37428,2026-114C,2026-06-07T18:00:04.999104,15.78027742,.0001184,53.1586,249.5821,68.2312,118.2069,0,U,69184,999,329,.25259E-3,.43357E-3,0
STARLINK-37237,2026-114D,2026-06-07T18:00:04.999104,15.78037093,.0001133,53.1588,249.5491,89.6082,112.4743,0,U,69185,999,329,.17652E-3,.30064E-3,0
STARLINK-37365,2026-114E,2026-06-07T18:00:04.999104,15.78037865,.0001186,53.1585,249.5529,76.1244,124.1716,0,U,69186,999,329,.2652E-3,.45589E-3,0
STARLINK-37209,2026-114F,2026-06-07T18:00:04.999104,15.77998305,.0001148,53.1587,249.5438,64.5969,140.0950,0,U,69187,999,329,.8365E-3,.146716E-2,0
STARLINK-37359,2026-114G,2026-06-07T18:00:04.999104,15.78055961,.0001129,53.1587,249.5386,77.8797,129.3119,0,U,69188,999,329,.76556E-4,.12644E-3,0
STARLINK-37440,2026-114H,2026-06-07T18:00:04.999104,15.80816639,.0000815,53.1584,249.1304,73.0483,331.4309,0,U,69189,999,329,.56222E-3,.111415E-2,0
STARLINK-37282,2026-114J,2026-06-07T18:00:04.999104,15.81343500,.0000925,53.1586,249.4721,91.9761,147.3152,0,U,69190,999,329,-.10355E-1,-.1833352E-1,0
STARLINK-37422,2026-114K,2026-06-07T18:00:04.999104,15.80865724,.0000994,53.1585,249.4523,106.0743,143.0925,0,U,69191,999,329,.19451E-3,.37847E-3,0
STARLINK-37424,2026-114L,2026-06-07T18:00:04.999104,15.78902088,.0001355,53.1587,249.4656,63.5352,179.2364,0,U,69192,999,329,-.69102E-2,-.1117136E-1,0
STARLINK-36666,2026-114M,2026-06-07T18:00:04.999104,15.80866586,.0001213,53.1583,249.4551,85.9501,161.9535,0,U,69193,999,329,.23649E-3,.46212E-3,0
STARLINK-37355,2026-114N,2026-06-07T18:00:04.999104,15.80880503,.0001138,53.1585,249.4465,79.2162,172.9596,0,U,69194,999,329,-.75409E-4,-.15561E-3,0
STARLINK-37166,2026-114P,2026-06-07T18:00:04.999104,15.80822149,.0001259,53.1587,249.4282,77.2035,183.5328,0,U,69195,999,329,.71313E-3,.142053E-2,0
